start=new Date('2022-01-10T00:00:00.000Z').valueOf();
sats=[{"MEAN_MOTION":"15.06399101","EPHEMERIS_TYPE":"0","TLE_LINE1":"1 46533U 20070B   22009.81986657  .00001062  00000-0  90223-4 0  9992","PERIAPSIS":"545.709","GP_ID":"193559018","LAUNCH_DATE":"2020-10-06","SITE":"AFETR","INCLINATION":"53.0512","MEAN_ELEMENT_THEORY":"SGP4","ECCENTRICITY":"0.00021770","NORAD_CAT_ID":"46533","BSTAR":"0.00009022300000","REV_AT_EPOCH":"7042","OBJECT_NAME":"STARLINK-1648","RA_OF_ASC_NODE":"159.5837","MEAN_MOTION_DDOT":"0.0000000000000","FILE":"3268323","ELEMENT_SET_NO":"999","TIME_SYSTEM":"UTC","APOAPSIS":"548.724","OBJECT_TYPE":"PAYLOAD","MEAN_ANOMALY":"267.0704","EPOCH":"2022-01-09T19:40:36.471648","ARG_OF_PERICENTER":"93.0534","PERIOD":"95.592","RCS_SIZE":"LARGE","CENTER_NAME":"EARTH","OBJECT_ID":"2020-070B","DECAY_DATE":null,"MEAN_MOTION_DOT":"0.00001062","COUNTRY_CODE":"US","TLE_LINE2":"2 46533  53.0512 159.5837 0002177  93.0534 267.0704 15.06399101 70422","CLASSIFICATION_TYPE":"U","REF_FRAME":"TEME","SEMIMAJOR_AXIS":"6925.351"},{"ARG_OF_PERICENTER":"90.7702","EPOCH":"2022-01-09T19:14:03.953760","MEAN_ANOMALY":"269.3492","OBJECT_TYPE":"PAYLOAD","APOAPSIS":"548.462","DECAY_DATE":null,"MEAN_MOTION_DOT":"0.00001179","OBJECT_ID":"2020-070C","RCS_SIZE":"LARGE","PERIOD":"95.592","CENTER_NAME":"EARTH","TLE_LINE2":"2 46534  53.0549 159.6565 0001796  90.7702 269.3492 15.06398599 70428","COUNTRY_CODE":"US","SEMIMAJOR_AXIS":"6925.353","REF_FRAME":"TEME","CLASSIFICATION_TYPE":"U","TLE_LINE1":"1 46534U 20070C   22009.80143465  .00001179  00000-0  98015-4 0  9990","PERIAPSIS":"545.974","EPHEMERIS_TYPE":"0","MEAN_MOTION":"15.06398599","ECCENTRICITY":"0.00017960","MEAN_ELEMENT_THEORY":"SGP4","SITE":"AFETR","INCLINATION":"53.0549","LAUNCH_DATE":"2020-10-06","GP_ID":"193557784","REV_AT_EPOCH":"7042","BSTAR":"0.00009801500000","NORAD_CAT_ID":"46534","FILE":"3268323","TIME_SYSTEM":"UTC","ELEMENT_SET_NO":"999","MEAN_MOTION_DDOT":"0.0000000000000","RA_OF_ASC_NODE":"159.6565","OBJECT_NAME":"STARLINK-1659"},{"GP_ID":"193558034","LAUNCH_DATE":"2020-10-06","INCLINATION":"53.0537","SITE":"AFETR","MEAN_ELEMENT_THEORY":"SGP4","ECCENTRICITY":"0.00021740","MEAN_MOTION":"15.06412143","EPHEMERIS_TYPE":"0","PERIAPSIS":"545.671","TLE_LINE1":"1 46535U 20070D   22009.65767567  .00001153  00000-0  96283-4 0  9996","OBJECT_NAME":"STARLINK-1663","RA_OF_ASC_NODE":"160.3125","MEAN_MOTION_DDOT":"0.0000000000000","ELEMENT_SET_NO":"999","FILE":"3268323","TIME_SYSTEM":"UTC","NORAD_CAT_ID":"46535","BSTAR":"0.00009628300000","REV_AT_EPOCH":"7039","PERIOD":"95.591","RCS_SIZE":"LARGE","CENTER_NAME":"EARTH","OBJECT_ID":"2020-070D","DECAY_DATE":null,"MEAN_MOTION_DOT":"0.00001153","APOAPSIS":"548.682","OBJECT_TYPE":"PAYLOAD","MEAN_ANOMALY":"270.6841","EPOCH":"2022-01-09T15:47:03.177888","ARG_OF_PERICENTER":"89.4397","CLASSIFICATION_TYPE":"U","REF_FRAME":"TEME","SEMIMAJOR_AXIS":"6925.311","COUNTRY_CODE":"US","TLE_LINE2":"2 46535  53.0537 160.3125 0002174  89.4397 270.6841 15.06412143 70394"},{"REV_AT_EPOCH":"7125","BSTAR":"0.00051408000000","NORAD_CAT_ID":"46536","TIME_SYSTEM":"UTC","FILE":"3268246","ELEMENT_SET_NO":"999","OBJECT_NAME":"STARLINK-1668","MEAN_MOTION_DDOT":"0.0000000000000","RA_OF_ASC_NODE":"99.8736","EPHEMERIS_TYPE":"0","MEAN_MOTION":"15.82591649","PERIAPSIS":"312.172","TLE_LINE1":"1 46536U 20070E   22009.49200068  .00111658  00000-0  51408-3 0  9998","MEAN_ELEMENT_THEORY":"SGP4","INCLINATION":"53.0515","SITE":"AFETR","ECCENTRICITY":"0.00163320","GP_ID":"193534914","LAUNCH_DATE":"2020-10-06","TLE_LINE2":"2 46536  53.0515  99.8736 0016332 346.1949  13.8624 15.82591649 71257","COUNTRY_CODE":"US","SEMIMAJOR_AXIS":"6701.252","REF_FRAME":"TEME","CLASSIFICATION_TYPE":"U","EPOCH":"2022-01-09T11:48:28.858752","ARG_OF_PERICENTER":"346.1949","OBJECT_TYPE":"PAYLOAD","APOAPSIS":"334.061","MEAN_ANOMALY":"13.8624","MEAN_MOTION_DOT":"0.00111658","DECAY_DATE":null,"CENTER_NAME":"EARTH","RCS_SIZE":"LARGE","PERIOD":"90.990","OBJECT_ID":"2020-070E"},{"ARG_OF_PERICENTER":"94.2890","EPOCH":"2022-01-09T19:35:17.681568","MEAN_ANOMALY":"265.8366","APOAPSIS":"548.836","OBJECT_TYPE":"PAYLOAD","MEAN_MOTION_DOT":"-0.00000890","DECAY_DATE":null,"OBJECT_ID":"2020-070F","PERIOD":"95.592","RCS_SIZE":"LARGE","CENTER_NAME":"EARTH","TLE_LINE2":"2 46537  53.0525 159.5986 0002342  94.2890 265.8366 15.06399950 70429","COUNTRY_CODE":"US","REF_FRAME":"TEME","SEMIMAJOR_AXIS":"6925.349","CLASSIFICATION_TYPE":"U","PERIAPSIS":"545.592","TLE_LINE1":"1 46537U 20070F   22009.81617687 -.00000890  00000-0 -40846-4 0  9996","MEAN_MOTION":"15.06399950","EPHEMERIS_TYPE":"0","ECCENTRICITY":"0.00023420","SITE":"AFETR","INCLINATION":"53.0525","MEAN_ELEMENT_THEORY":"SGP4","LAUNCH_DATE":"2020-10-06","GP_ID":"193558519","REV_AT_EPOCH":"7042","NORAD_CAT_ID":"46537","BSTAR":"-0.00004084600000","FILE":"3268323","TIME_SYSTEM":"UTC","ELEMENT_SET_NO":"999","MEAN_MOTION_DDOT":"0.0000000000000","RA_OF_ASC_NODE":"159.5986","OBJECT_NAME":"STARLINK-1672"},{"GP_ID":"193557285","LAUNCH_DATE":"2020-10-06","SITE":"AFETR","INCLINATION":"53.0533","MEAN_ELEMENT_THEORY":"SGP4","ECCENTRICITY":"0.00019940","MEAN_MOTION":"15.06413264","EPHEMERIS_TYPE":"0","PERIAPSIS":"545.792","TLE_LINE1":"1 46538U 20070G   22009.72770522  .00001345  00000-0  10913-3 0  9990","OBJECT_NAME":"STARLINK-1678","MEAN_MOTION_DDOT":"0.0000000000000","RA_OF_ASC_NODE":"159.9945","TIME_SYSTEM":"UTC","FILE":"3268323","ELEMENT_SET_NO":"999","NORAD_CAT_ID":"46538","BSTAR":"0.00010913000000","REV_AT_EPOCH":"7040","PERIOD":"95.591","RCS_SIZE":"LARGE","CENTER_NAME":"EARTH","OBJECT_ID":"2020-070G","MEAN_MOTION_DOT":"0.00001345","DECAY_DATE":null,"APOAPSIS":"548.554","OBJECT_TYPE":"PAYLOAD","MEAN_ANOMALY":"272.7508","EPOCH":"2022-01-09T17:27:53.731008","ARG_OF_PERICENTER":"87.3709","CLASSIFICATION_TYPE":"U","REF_FRAME":"TEME","SEMIMAJOR_AXIS":"6925.308","COUNTRY_CODE":"US","TLE_LINE2":"2 46538  53.0533 159.9945 0001994  87.3709 272.7508 15.06413264 70400"},{"GP_ID":"193557535","LAUNCH_DATE":"2020-10-06","MEAN_ELEMENT_THEORY":"SGP4","INCLINATION":"53.0495","SITE":"AFETR","ECCENTRICITY":"0.00017360","EPHEMERIS_TYPE":"0","MEAN_MOTION":"15.47234446","PERIAPSIS":"423.642","TLE_LINE1":"1 46539U 20070H   22009.92240934  .00651778  00000-0  11733-1 0  9992","OBJECT_NAME":"STARLINK-1684","RA_OF_ASC_NODE":"152.8264","MEAN_MOTION_DDOT":"0.0000000000000","FILE":"3268323","TIME_SYSTEM":"UTC","ELEMENT_SET_NO":"999","BSTAR":"0.01173300000000","NORAD_CAT_ID":"46539","REV_AT_EPOCH":"7053","CENTER_NAME":"EARTH","RCS_SIZE":"LARGE","PERIOD":"93.069","OBJECT_ID":"2020-070H","MEAN_MOTION_DOT":"0.00651778","DECAY_DATE":null,"OBJECT_TYPE":"PAYLOAD","APOAPSIS":"426.003","MEAN_ANOMALY":"307.1468","EPOCH":"2022-01-09T22:08:16.166976","ARG_OF_PERICENTER":"52.9698","CLASSIFICATION_TYPE":"U","SEMIMAJOR_AXIS":"6802.957","REF_FRAME":"TEME","COUNTRY_CODE":"US","TLE_LINE2":"2 46539  53.0495 152.8264 0001736  52.9698 307.1468 15.47234446 70533"},{"PERIOD":"95.592","RCS_SIZE":"LARGE","CENTER_NAME":"EARTH","OBJECT_ID":"2020-070K","MEAN_MOTION_DOT":"0.00001572","DECAY_DATE":null,"APOAPSIS":"548.554","OBJECT_TYPE":"PAYLOAD","MEAN_ANOMALY":"260.0214","EPOCH":"2022-01-09T15:23:10.161312","ARG_OF_PERICENTER":"100.0991","CLASSIFICATION_TYPE":"U","REF_FRAME":"TEME","SEMIMAJOR_AXIS":"6925.363","COUNTRY_CODE":"US","TLE_LINE2":"2 46541  53.0561 140.3719 0001914 100.0991 260.0214 15.06395254 70677","GP_ID":"193558287","LAUNCH_DATE":"2020-10-06","SITE":"AFETR","INCLINATION":"53.0561","MEAN_ELEMENT_THEORY":"SGP4","ECCENTRICITY":"0.00019140","MEAN_MOTION":"15.06395254","EPHEMERIS_TYPE":"0","TLE_LINE1":"1 46541U 20070K   22009.64108983  .00001572  00000-0  12445-3 0  9995","PERIAPSIS":"545.903","OBJECT_NAME":"STARLINK-1687","MEAN_MOTION_DDOT":"0.0000000000000","RA_OF_ASC_NODE":"140.3719","TIME_SYSTEM":"UTC","FILE":"3268323","ELEMENT_SET_NO":"999","NORAD_CAT_ID":"46541","BSTAR":"0.00012445000000","REV_AT_EPOCH":"7067"},{"TLE_LINE1":"1 46542U 20070L   22009.70928181  .00000838  00000-0  75174-4 0  9996","PERIAPSIS":"545.847","MEAN_MOTION":"15.06394766","EPHEMERIS_TYPE":"0","LAUNCH_DATE":"2020-10-06","GP_ID":"193559019","ECCENTRICITY":"0.00019960","INCLINATION":"53.0536","SITE":"AFETR","MEAN_ELEMENT_THEORY":"SGP4","NORAD_CAT_ID":"46542","BSTAR":"0.00007517400000","REV_AT_EPOCH":"7040","MEAN_MOTION_DDOT":"0.0000000000000","RA_OF_ASC_NODE":"160.0782","OBJECT_NAME":"STARLINK-1692","ELEMENT_SET_NO":"999","FILE":"3268323","TIME_SYSTEM":"UTC","MEAN_ANOMALY":"266.6400","APOAPSIS":"548.612","OBJECT_TYPE":"PAYLOAD","ARG_OF_PERICENTER":"93.4818","EPOCH":"2022-01-09T17:01:21.948384","OBJECT_ID":"2020-070L","RCS_SIZE":"LARGE","CENTER_NAME":"EARTH","PERIOD":"95.592","MEAN_MOTION_DOT":"0.00000838","DECAY_DATE":null,"COUNTRY_CODE":"US","TLE_LINE2":"2 46542  53.0536 160.0782 0001996  93.4818 266.6400 15.06394766 70409","CLASSIFICATION_TYPE":"U","REF_FRAME":"TEME","SEMIMAJOR_AXIS":"6925.365"},{"REV_AT_EPOCH":"7040","NORAD_CAT_ID":"46543","BSTAR":"-0.00002382800000","FILE":"3268323","ELEMENT_SET_NO":"999","TIME_SYSTEM":"UTC","RA_OF_ASC_NODE":"160.1357","MEAN_MOTION_DDOT":"0.0000000000000","OBJECT_NAME":"STARLINK-1693","TLE_LINE1":"1 46543U 20070M   22009.69453561 -.00000636  00000-0 -23828-4 0  9997","PERIAPSIS":"545.977","MEAN_MOTION":"15.06393606","EPHEMERIS_TYPE":"0","ECCENTRICITY":"0.00018140","SITE":"AFETR","INCLINATION":"53.0543","MEAN_ELEMENT_THEORY":"SGP4","LAUNCH_DATE":"2020-10-06","GP_ID":"193557785","TLE_LINE2":"2 46543  53.0543 160.1357 0001814  82.6893 277.4302 15.06393606 70402","COUNTRY_CODE":"US","REF_FRAME":"TEME","SEMIMAJOR_AXIS":"6925.368","CLASSIFICATION_TYPE":"U","ARG_OF_PERICENTER":"82.6893","EPOCH":"2022-01-09T16:40:07.876704","MEAN_ANOMALY":"277.4302","APOAPSIS":"548.489","OBJECT_TYPE":"PAYLOAD","DECAY_DATE":null,"MEAN_MOTION_DOT":"-0.00000636","OBJECT_ID":"2020-070M","RCS_SIZE":"LARGE","PERIOD":"95.593","CENTER_NAME":"EARTH"}];
